{
  "type": "FeatureCollection",
  "features": [
    {
      "type": "Feature",
      "properties": {
        "norad_id": 31307,
        "name": "GALAXY 17 (G-17)",
        "group": "intelsat",
        "lat": 2.445111946375062,
        "lon": 162.47088083341475,
        "alt_km": 35781.58758561176,
        "timestamp": "2025-12-06T11:28:10.696838+00:00",
        "meta_object_name": "GALAXY 17 (G-17)",
        "meta_object_id": "2007-016B",
        "meta_epoch": "2025-12-05T21:51:09.893952",
        "meta_mean_motion": 1.00270121,
        "meta_eccentricity": 0.00060923,
        "meta_inclination": 2.4819,
        "meta_ra_of_asc_node": 82.3624,
        "meta_arg_of_pericenter": 159.5421,
        "meta_mean_anomaly": 75.8428,
        "meta_ephemeris_type": 0,
        "meta_classification_type": "U",
        "meta_norad_cat_id": 31307,
        "meta_element_set_no": 999,
        "meta_rev_at_epoch": 6786,
        "meta_bstar": 0,
        "meta_mean_motion_dot": -1.98e-06,
        "meta_mean_motion_ddot": 0,
        "tle_line1": "1 31307U 07016B   25339.91053118 -.00000198  00000+0  00000+0 0  9995",
        "tle_line2": "2 31307   2.4819  82.3624 0006092 159.5421  75.8428  1.00270121 67864"
      },
      "geometry": {
        "type": "Point",
        "coordinates": [
          162.47088083341475,
          2.445111946375062
        ]
      }
    },
    {
      "type": "Feature",
      "properties": {
        "norad_id": 31862,
        "name": "DIRECTV 10",
        "group": "intelsat",
        "lat": 0.0010928521521918443,
        "lon": 144.75705862795118,
        "alt_km": 35785.21313989581,
        "timestamp": "2025-12-06T11:28:10.696850+00:00",
        "meta_object_name": "DIRECTV 10",
        "meta_object_id": "2007-032A",
        "meta_epoch": "2025-12-05T21:46:02.883648",
        "meta_mean_motion": 1.00271472,
        "meta_eccentricity": 3.638e-05,
        "meta_inclination": 0.0045,
        "meta_ra_of_asc_node": 107.8755,
        "meta_arg_of_pericenter": 87.4391,
        "meta_mean_anomaly": 103.363,
        "meta_ephemeris_type": 0,
        "meta_classification_type": "U",
        "meta_norad_cat_id": 31862,
        "meta_element_set_no": 999,
        "meta_rev_at_epoch": 4365,
        "meta_bstar": 0,
        "meta_mean_motion_dot": -9.4e-07,
        "meta_mean_motion_ddot": 0,
        "tle_line1": "1 31862U 07032A   25339.90697782 -.00000094  00000+0  00000+0 0  9994",
        "tle_line2": "2 31862   0.0045 107.8755 0000363  87.4391 103.3630  1.00271472 43656"
      },
      "geometry": {
        "type": "Point",
        "coordinates": [
          144.75705862795118,
          0.0010928521521918443
        ]
      }
    },
    {
      "type": "Feature",
      "properties": {
        "norad_id": 32253,
        "name": "INTELSAT 11 (IS-11)",
        "group": "intelsat",
        "lat": 2.6524003756753385,
        "lon": 140.67633965857146,
        "alt_km": 36141.61471906575,
        "timestamp": "2025-12-06T11:28:10.696862+00:00",
        "meta_object_name": "INTELSAT 11 (IS-11)",
        "meta_object_id": "2007-044B",
        "meta_epoch": "2025-12-05T21:45:40.419648",
        "meta_mean_motion": 0.99047165,
        "meta_eccentricity": 0.00092771,
        "meta_inclination": 3.0614,
        "meta_ra_of_asc_node": 81.0516,
        "meta_arg_of_pericenter": 162.75,
        "meta_mean_anomaly": 53.3508,
        "meta_ephemeris_type": 0,
        "meta_classification_type": "U",
        "meta_norad_cat_id": 32253,
        "meta_element_set_no": 999,
        "meta_rev_at_epoch": 6653,
        "meta_bstar": 0,
        "meta_mean_motion_dot": 4.2e-07,
        "meta_mean_motion_ddot": 0,
        "tle_line1": "1 32253U 07044B   25339.90671782  .00000042  00000+0  00000+0 0  9996",
        "tle_line2": "2 32253   3.0614  81.0516 0009277 162.7500  53.3508  0.99047165 66533"
      },
      "geometry": {
        "type": "Point",
        "coordinates": [
          140.67633965857146,
          2.6524003756753385
        ]
      }
    },
    {
      "type": "Feature",
      "properties": {
        "norad_id": 32388,
        "name": "HORIZONS-2",
        "group": "intelsat",
        "lat": 2.097160199631584,
        "lon": 173.71645171644985,
        "alt_km": 35787.002538481436,
        "timestamp": "2025-12-06T11:28:10.696874+00:00",
        "meta_object_name": "HORIZONS-2",
        "meta_object_id": "2007-063B",
        "meta_epoch": "2025-12-05T21:54:24.583392",
        "meta_mean_motion": 1.00271306,
        "meta_eccentricity": 0.0005074,
        "meta_inclination": 2.1028,
        "meta_ra_of_asc_node": 83.034,
        "meta_arg_of_pericenter": 183.4842,
        "meta_mean_anomaly": 63.2661,
        "meta_ephemeris_type": 0,
        "meta_classification_type": "U",
        "meta_norad_cat_id": 32388,
        "meta_element_set_no": 999,
        "meta_rev_at_epoch": 6587,
        "meta_bstar": 0,
        "meta_mean_motion_dot": -2.45e-06,
        "meta_mean_motion_ddot": 0,
        "tle_line1": "1 32388U 07063B   25339.91278453 -.00000245  00000+0  00000+0 0  9991",
        "tle_line2": "2 32388   2.1028  83.0340 0005074 183.4842  63.2661  1.00271306 65873"
      },
      "geometry": {
        "type": "Point",
        "coordinates": [
          173.71645171644985,
          2.097160199631584
        ]
      }
    },
    {
      "type": "Feature",
      "properties": {
        "norad_id": 32729,
        "name": "DIRECTV 11",
        "group": "intelsat",
        "lat": -0.0015232460927178302,
        "lon": 148.34465331895464,
        "alt_km": 35785.303198639514,
        "timestamp": "2025-12-06T11:28:10.696885+00:00",
        "meta_object_name": "DIRECTV 11",
        "meta_object_id": "2008-013A",
        "meta_epoch": "2025-12-05T21:47:02.789088",
        "meta_mean_motion": 1.0026924,
        "meta_eccentricity": 4.793e-05,
        "meta_inclination": 0.0051,
        "meta_ra_of_asc_node": 253.8201,
        "meta_arg_of_pericenter": 295.7852,
        "meta_mean_anomaly": 112.9152,
        "meta_ephemeris_type": 0,
        "meta_classification_type": "U",
        "meta_norad_cat_id": 32729,
        "meta_element_set_no": 999,
        "meta_rev_at_epoch": 4365,
        "meta_bstar": 0,
        "meta_mean_motion_dot": -1.16e-06,
        "meta_mean_motion_ddot": 0,
        "tle_line1": "1 32729U 08013A   25339.90767117 -.00000116  00000+0  00000+0 0  9992",
        "tle_line2": "2 32729   0.0051 253.8201 0000479 295.7852 112.9152  1.00269240 43653"
      },
      "geometry": {
        "type": "Point",
        "coordinates": [
          148.34465331895464,
          -0.0015232460927178302
        ]
      }
    },
    {
      "type": "Feature",
      "properties": {
        "norad_id": 32951,
        "name": "GALAXY 18 (G-18)",
        "group": "intelsat",
        "lat": 0.027298938549534333,
        "lon": 124.51179595030517,
        "alt_km": 35795.87102895665,
        "timestamp": "2025-12-06T11:28:10.696897+00:00",
        "meta_object_name": "GALAXY 18 (G-18)",
        "meta_object_id": "2008-024A",
        "meta_epoch": "2025-12-05T21:40:18.433632",
        "meta_mean_motion": 1.00269762,
        "meta_eccentricity": 0.00033245,
        "meta_inclination": 0.0151,
        "meta_ra_of_asc_node": 24.606,
        "meta_arg_of_pericenter": 230.9921,
        "meta_mean_anomaly": 21.4241,
        "meta_ephemeris_type": 0,
        "meta_classification_type": "U",
        "meta_norad_cat_id": 32951,
        "meta_element_set_no": 999,
        "meta_rev_at_epoch": 4391,
        "meta_bstar": 0,
        "meta_mean_motion_dot": 3.5e-07,
        "meta_mean_motion_ddot": 0,
        "tle_line1": "1 32951U 08024A   25339.90299113  .00000035  00000+0  00000+0 0  9996",
        "tle_line2": "2 32951   0.0151  24.6060 0003324 230.9921  21.4241  1.00269762 43919"
      },
      "geometry": {
        "type": "Point",
        "coordinates": [
          124.51179595030517,
          0.027298938549534333
        ]
      }
    },
    {
      "type": "Feature",
      "properties": {
        "norad_id": 33153,
        "name": "INTELSAT 25 (IS-25)",
        "group": "intelsat",
        "lat": 1.5864097158886719,
        "lon": -143.962287387922,
        "alt_km": 35770.43276510339,
        "timestamp": "2025-12-06T11:28:10.696910+00:00",
        "meta_object_name": "INTELSAT 25 (IS-25)",
        "meta_object_id": "2008-034A",
        "meta_epoch": "2025-12-05T22:06:23.434848",
        "meta_mean_motion": 1.00270838,
        "meta_eccentricity": 0.00054471,
        "meta_inclination": 2.2092,
        "meta_ra_of_asc_node": 82.7229,
        "meta_arg_of_pericenter": 180.3411,
        "meta_mean_anomaly": 112.0124,
        "meta_ephemeris_type": 0,
        "meta_classification_type": "U",
        "meta_norad_cat_id": 33153,
        "meta_element_set_no": 999,
        "meta_rev_at_epoch": 6375,
        "meta_bstar": 0,
        "meta_mean_motion_dot": -2.16e-06,
        "meta_mean_motion_ddot": 0,
        "tle_line1": "1 33153U 08034A   25339.92110457 -.00000216  00000+0  00000+0 0  9999",
        "tle_line2": "2 33153   2.2092  82.7229 0005447 180.3411 112.0124  1.00270838 63751"
      },
      "geometry": {
        "type": "Point",
        "coordinates": [
          -143.962287387922,
          1.5864097158886719
        ]
      }
    }
  ]
}